IRIDIUM 126             
1 42809U 17039G   26004.19262524  .00000413  00000+0  14033-3 0  9997
2 42809  86.3946  62.1972 0002209 100.5616 259.5829 14.34216861446448
IRIDIUM 124             
1 42810U 17039H   26004.50094766  .00000643  00000+0  18514-3 0  9998
2 42810  86.4492 358.7886 0002448  90.4244 269.7238 14.43275169451500
IRIDIUM 128             
1 42811U 17039J   26004.32290104  .00000457  00000+0  15624-3 0  9995
2 42811  86.3961  93.6811 0002268  91.3444 268.8012 14.34219207446499
IRIDIUM 121             
1 42812U 17039K   26004.42096029  .00000055  00000+0  12416-4 0  9998
2 42812  86.3947  62.1282 0002186  91.8413 268.3033 14.34217748446358
IRIDIUM 133             
1 42955U 17061A   26004.28484649  .00000099  00000+0  28129-4 0  9990
2 42955  86.3967  93.8107 0002188  97.2773 262.8672 14.34217806431285
IRIDIUM 100             
1 42956U 17061B   26004.27850006  .00000084  00000+0  22818-4 0  9997
2 42956  86.3964  93.7355 0002125  97.1478 262.9959 14.34219546431281
IRIDIUM 122             
1 42957U 17061C   26004.31655532  .00000425  00000+0  14480-3 0  9994
2 42957  86.3963  93.7203 0002165  98.6982 261.4459 14.34220500431295
IRIDIUM 129             
1 42958U 17061D   26004.34192848  .00000309  00000+0  10332-3 0  9997
2 42958  86.3962  93.7743 0001734 102.6335 257.5054 14.34217901431314
